[
  {
    "OBJECT_NAME": "EWS-G2 (GOES 15)",
    "OBJECT_ID": "2010-008A",
    "EPOCH": "2025-05-05T22:17:20.039424",
    "MEAN_MOTION": 1.00276257,
    "ECCENTRICITY": 0.0001673,
    "INCLINATION": 0.2207,
    "RA_OF_ASC_NODE": 85.9273,
    "ARG_OF_PERICENTER": 181.4339,
    "MEAN_ANOMALY": 352.5756,
    "EPHEMERIS_TYPE": 0,
    "CLASSIFICATION_TYPE": "U",
    "NORAD_CAT_ID": 36411,
    "ELEMENT_SET_NO": 999,
    "REV_AT_EPOCH": 5555,
    "BSTAR": 0,
    "MEAN_MOTION_DOT": 2.9e-07,
    "MEAN_MOTION_DDOT": 0
  },
  {
    "OBJECT_NAME": "GOES 16",
    "OBJECT_ID": "2016-071A",
    "EPOCH": "2025-05-05T20:46:55.366176",
    "MEAN_MOTION": 1.00128026,
    "ECCENTRICITY": 9.14e-05,
    "INCLINATION": 0.0472,
    "RA_OF_ASC_NODE": 272.5682,
    "ARG_OF_PERICENTER": 198.1189,
    "MEAN_ANOMALY": 336.8734,
    "EPHEMERIS_TYPE": 0,
    "CLASSIFICATION_TYPE": "U",
    "NORAD_CAT_ID": 41866,
    "ELEMENT_SET_NO": 999,
    "REV_AT_EPOCH": 3101,
    "BSTAR": 0,
    "MEAN_MOTION_DOT": -1.78e-06,
    "MEAN_MOTION_DDOT": 0
  },
  {
    "OBJECT_NAME": "GOES 17",
    "OBJECT_ID": "2018-022A",
    "EPOCH": "2025-05-06T04:59:38.859360",
    "MEAN_MOTION": 1.00270879,
    "ECCENTRICITY": 0.0002386,
    "INCLINATION": 0.0396,
    "RA_OF_ASC_NODE": 74.8297,
    "ARG_OF_PERICENTER": 18.6818,
    "MEAN_ANOMALY": 101.3126,
    "EPHEMERIS_TYPE": 0,
    "CLASSIFICATION_TYPE": "U",
    "NORAD_CAT_ID": 43226,
    "ELEMENT_SET_NO": 999,
    "REV_AT_EPOCH": 2635,
    "BSTAR": 0,
    "MEAN_MOTION_DOT": -9.9e-07,
    "MEAN_MOTION_DDOT": 0
  },
  {
    "OBJECT_NAME": "GOES 18",
    "OBJECT_ID": "2022-021A",
    "EPOCH": "2025-05-06T04:45:51.626880",
    "MEAN_MOTION": 1.0027127,
    "ECCENTRICITY": 9e-06,
    "INCLINATION": 0.0105,
    "RA_OF_ASC_NODE": 147.2765,
    "ARG_OF_PERICENTER": 286.553,
    "MEAN_ANOMALY": 84.9371,
    "EPHEMERIS_TYPE": 0,
    "CLASSIFICATION_TYPE": "U",
    "NORAD_CAT_ID": 51850,
    "ELEMENT_SET_NO": 999,
    "REV_AT_EPOCH": 1172,
    "BSTAR": 0,
    "MEAN_MOTION_DOT": 9.1e-07,
    "MEAN_MOTION_DDOT": 0
  },
  {
    "OBJECT_NAME": "GOES 19",
    "OBJECT_ID": "2024-119A",
    "EPOCH": "2025-05-05T19:07:54.619680",
    "MEAN_MOTION": 1.00267666,
    "ECCENTRICITY": 3.49e-05,
    "INCLINATION": 0.0139,
    "RA_OF_ASC_NODE": 110.8003,
    "ARG_OF_PERICENTER": 328.7471,
    "MEAN_ANOMALY": 356.1414,
    "EPHEMERIS_TYPE": 0,
    "CLASSIFICATION_TYPE": "U",
    "NORAD_CAT_ID": 60133,
    "ELEMENT_SET_NO": 999,
    "REV_AT_EPOCH": 287,
    "BSTAR": 0,
    "MEAN_MOTION_DOT": -2.55e-06,
    "MEAN_MOTION_DDOT": 0
  }
]